GSAT-15                 
1 41028U 15065A   26165.06560125 -.00000248  00000+0  00000+0 0  9990
2 41028   0.0783 265.8341 0004055 160.9053 312.7376  1.00270859 38767
BADR-7 (ARABSAT-6B)     
1 41029U 15065B   26165.19482000  .00000153  00000+0  00000+0 0  9994
2 41029   0.0282 229.3153 0003659 331.1510 158.1593  1.00272651 38739
LAOSAT 1                
1 41034U 15067A   26165.00127372 -.00000333  00000+0  00000+0 0  9991
2 41034   0.0231 162.8359 0002190 231.3661 357.0849  1.00270918 38823
TELSTAR 12V             
1 41036U 15068A   26165.18667330 -.00000110  00000+0  00000+0 0  9999
2 41036   0.0023 347.5157 0002099  87.6862 239.5001  1.00271063 38595
ELEKTRO-L 2             
1 41105U 15074A   26165.04412756 -.00000114  00000+0  00000+0 0  9992
2 41105   6.6845  70.5612 0000704 243.9352 309.2359  1.00270718 38471
COSMOS 2513             
1 41121U 15075A   26164.42137462 -.00000126  00000+0  00000+0 0  9993
2 41121   0.0796 100.5492 0003255 331.7026  61.4361  1.00271348 38515
EXPRESS-AMU1            
1 41191U 15082A   26165.19681334  .00000164  00000+0  00000+0 0  9996
2 41191   0.0154  48.6945 0002627  35.7777 284.9711  1.00272388 38236
GAOFEN-4                
1 41194U 15083A   26165.10947455 -.00000326  00000+0  00000+0 0  9991
2 41194   0.3481  83.8704 0004366 114.2838 209.3813  1.00270299 38493
BELINTERSAT-1           
1 41238U 16001A   26165.19984670  .00000116  00000+0  00000+0 0  9996
2 41238   0.0451 255.2322 0002383 151.1882 339.4938  1.00268567 38200
IRNSS-1E                
1 41241U 16003A   26163.64327530 -.00000313  00000+0  00000+0 0  9996
2 41241  33.2248  59.8162 0017963 179.0965   5.2620  1.00267194 38039
EUTELSAT 9B             
1 41310U 16005A   26165.19143999  .00000070  00000+0  00000+0 0  9991
2 41310   0.0734  74.6324 0001689 328.0748 297.6789  1.00270407 38085
SES-9                   
1 41380U 16013A   26164.87104819 -.00000335  00000+0  00000+0 0  9994
2 41380   0.0107 338.3404 0001996 107.7175 237.9960  1.00269376 37408
EUTELSAT 65 WEST A      
1 41382U 16014A   26165.19558542 -.00000268  00000+0  00000+0 0  9994
2 41382   0.0557  22.8929 0002002  50.3399 194.4866  1.00269916 37497
IRNSS-1F                
1 41384U 16015A   26165.05355453  .00000163  00000+0  00000+0 0  9991
2 41384   5.3413  96.8509 0017463 185.3965  31.9094  1.00265805 37635
BEIDOU-2 IGSO-6         
1 41434U 16021A   26164.01229207 -.00000156  00000+0  00000+0 0  9999
2 41434  60.2196  38.0819 0057077 231.5209  89.2880  1.00259939 37439
IRNSS-1G                
1 41469U 16027A   26164.78755483 -.00000328  00000+0  00000+0 0  9998
2 41469   5.1897  97.5513 0007538 354.2813 223.3232  1.00267757 37142
JCSAT-2B                
1 41471U 16028A   26165.14890105 -.00000157  00000+0  00000+0 0  9994
2 41471   0.0167 335.4735 0000760 100.8782  33.7080  1.00268395 37108
THAICOM 8               
1 41552U 16031A   26165.06265457 -.00000112  00000+0  00000+0 0  9996
2 41552   0.0784  52.8584 0003428   6.0730 304.5030  1.00269570 36681
INTELSAT 31 (IS-31)     
1 41581U 16035A   26165.17081569 -.00000142  00000+0  00000+0 0  9997
2 41581   0.0179 271.7333 0001205 326.1691 351.0186  1.00268287 36658
BEIDOU-2 G7             
1 41586U 16037A   26164.99763370 -.00000344  00000+0  00000+0 0  9994
2 41586   1.7107  69.2921 0006802   3.9979 298.6131  1.00265328  6850
ABS-2A (MONGOLSAT-1)    
1 41588U 16038A   26164.84236471  .00000000  00000+0  00000+0 0  9996
2 41588   0.0256 342.2724 0001256  34.6383 263.2316  1.00268031 36672
EUTELSAT 117 WEST B     
1 41589U 16038B   26165.16648235 -.00000002  00000+0  00000+0 0  9991
2 41589   0.0085 149.2353 0000500 307.8530 108.3184  1.00266033 36634
BRISAT                  
1 41591U 16039A   26164.72041514 -.00000186  00000+0  00000+0 0  9996
2 41591   0.0169 316.5658 0001880 122.5208 232.7935  1.00270724 36574
ECHOSTAR 18             
1 41592U 16039B   26164.89237543 -.00000272  00000+0  00000+0 0  9990
2 41592   0.0175 352.8251 0001198  92.1954  77.0736  1.00269516 36594
MUOS-5                  
1 41622U 16041A   26165.16899569 -.00000113  00000+0  00000+0 0  9994
2 41622   2.2102 301.5997 0197333 260.8660  15.6110  1.00271507 37054
TIANTONG-1 1            
1 41725U 16048A   26165.14697556 -.00000311  00000+0  00000+0 0  9995
2 41725   3.8434  43.3916 0005815  45.6971 327.6570  1.00267836 36248
JCSAT-16                
1 41729U 16050A   26164.79041484 -.00000241  00000+0  00000+0 0  9997
2 41729   0.0169 334.0924 0000757 126.3750 230.1260  1.00270535 36038
USA 270                 
1 41744U 16052A   26162.34442750  .00000096  00000+0  00000+0 0  9993
2 41744   4.1835  77.2658 0008524 338.7721 152.1702  1.00285262 28079
USA 271                 
1 41745U 16052B   26162.29092666 -.00000344  00000+0  00000+0 0  9992
2 41745   4.1546  77.3359 0010788 156.7037 252.9173  1.00260351 27860
INTELSAT 36 (IS-36)     
1 41747U 16053A   26165.20622325 -.00000015  00000+0  00000+0 0  9995
2 41747   0.0105 359.4994 0002124 329.3715  76.3746  1.00270032 35920
INSAT-3DR               
1 41752U 16054A   26165.16830657 -.00000068  00000+0  00000+0 0  9994
2 41752   0.0985  86.7947 0010635 187.1091 123.1361  1.00270810 35785
GSAT-18                 
1 41793U 16060A   26165.16830657 -.00000068  00000+0  00000+0 0  9996
2 41793   0.0544 103.2442 0005436 328.9828 324.8180  1.00270742 35493
